LEMUR-2-PETERG          
1 42841U 17042S   26068.48235713  .00023240  00000+0  81076-3 0  9993
2 42841  97.3980 253.6596 0003700 341.6938  18.4169 15.29611459473171
STARLINK-35573          
1 66116U 25237C   26068.30297657  .00027032  00000+0  92161-3 0  9995
2 66116  53.1607  41.2626 0001364  85.8081 274.3075 15.30196329 22550
